BEIDOU-3S IGSO-1S       
1 40549U 15019A   26156.86652485 -.00000162  00000+0  00000+0 0  9990
2 40549  49.2179 295.5981 0038537 191.1976 171.8396  1.00253453 40962
NAVSTAR 74 (USA 262)    
1 40730U 15033A   26156.25475303 -.00000026  00000+0  00000+0 0  9992
2 40730  53.9920 267.5786 0115057  30.1861 330.4960  2.00556964 79753
BEIDOU-3S M2S           
1 40748U 15037A   26156.51044521 -.00000055  00000+0  00000+0 0  9990
2 40748  54.8818 302.4477 0007883 262.1990  97.7004  1.86232430 73906
BEIDOU-3S M1S           
1 40749U 15037B   26156.18239155 -.00000056  00000+0  00000+0 0  9994
2 40749  54.8788 302.4474 0003661  60.2130 299.8113  1.86254929 73906
GSAT0205 (GALILEO 9)    
1 40889U 15045A   26144.30399159 -.00000014  00000+0  00000+0 0  9994
2 40889  54.9357 222.4171 0006405 263.0112  96.9692  1.67409242 66562
GSAT0206 (GALILEO 10)   
1 40890U 15045B   26157.31220717  .00000041  00000+0  00000+0 0  9993
2 40890  54.9476 221.9050 0001712 337.7692  22.3083  1.70474019 66851
BEIDOU-3S IGSO-2S       
1 40938U 15053A   26156.75858443 -.00000135  00000+0  00000+0 0  9990
2 40938  49.2404 258.9193 0064947 192.0437 172.0457  1.00262312 39243
NAVSTAR 75 (USA 265)    
1 41019U 15062A   26156.31132486 -.00000068  00000+0  00000+0 0  9990
2 41019  56.9514  31.2688 0111581 231.1680 127.8846  2.00567113 77592
GSAT-15                 
1 41028U 15065A   26157.50856513 -.00000245  00000+0  00000+0 0  9996
2 41028   0.0473 114.4403 0004075 323.6244  93.4603  1.00271843 38695
GSAT0209 (GALILEO 12)   
1 41174U 15079A   26156.30703759  .00000019  00000+0  00000+0 0  9991
2 41174  55.8207 101.5878 0005440 339.2511  20.6937  1.70473904 64577
GSAT0208 (GALILEO 11)   
1 41175U 15079B   26154.18097635  .00000008  00000+0  00000+0 0  9993
2 41175  55.8180 101.6428 0004856 341.4145  18.5225  1.70473818 64950
IRNSS-1E                
1 41241U 16003A   26156.94409950 -.00000295  00000+0  00000+0 0  9997
2 41241  33.2108  59.9132 0017885 179.6163 106.4591  1.00270338 37967
NAVSTAR 76 (USA 266)    
1 41328U 16007A   26155.90285179  .00000004  00000+0  00000+0 0  9994
2 41328  55.5169  89.9466 0096310 247.3906 111.5783  2.00552419 75593
COSMOS 2514 [GLONASS-M] 
1 41330U 16008A   26157.02293360 -.00000030  00000+0  00000+0 0  9994
2 41330  65.0289 313.3897 0010868 197.3686 162.5895  2.13102674 80381
BEIDOU-2 IGSO-6         
1 41434U 16021A   26157.01392066 -.00000145  00000+0  00000+0 0  9993
2 41434  60.2097  38.1520 0057221 231.5167  83.2996  1.00261920 37360
IRNSS-1G                
1 41469U 16027A   26157.49782133 -.00000320  00000+0  00000+0 0  9992
2 41469   5.1719  97.7203 0007454 352.2418 113.7559  1.00271582 37076
GSAT0211 (GALILEO 14)   
1 41549U 16030A   26156.65135299  .00000041  00000+0  00000+0 0  9996
2 41549  55.0990 222.0126 0002678 329.1456  30.9257  1.70474112 62473
GSAT0210 (GALILEO 13)   
1 41550U 16030B   26155.73546720  .00000041  00000+0  00000+0 0  9991
2 41550  55.0978 222.0357 0003015 229.1415 130.9222  1.70474170 62452
BEIDOU-2 G7             
1 41586U 16037A   26157.58426858 -.00000340  00000+0  00000+0 0  9994
2 41586   1.6934  69.2236 0007334   1.4340 145.2392  1.00270423  6782
EUTELSAT 117 WEST B     
1 41589U 16038B   26157.53816325  .00000002  00000+0  00000+0 0  9999
2 41589   0.0180 162.5981 0000175 162.4187   6.6635  1.00269826 36551
GSAT0207 (GALILEO 15)   
1 41859U 16069A   26156.60027716  .00000019  00000+0  00000+0 0  9996
2 41859  55.4919 101.4069 0005483 326.6473  33.2866  1.70473771 59205
GSAT0212 (GALILEO 16)   
1 41860U 16069B   26157.04030880  .00000021  00000+0  00000+0 0  9996
2 41860  55.4899 101.3899 0004681 354.1097   5.8552  1.70473908 59468
GSAT0213 (GALILEO 17)   
1 41861U 16069C   26156.23439190  .00000017  00000+0  00000+0 0  9999
2 41861  55.4909 101.4200 0005209 311.1245  48.7972  1.70474348 59318
GSAT0214 (GALILEO 18)   
1 41862U 16069D   26155.20740261  .00000012  00000+0  00000+0 0  9995
2 41862  55.4897 101.4409 0004328 318.0236  41.9042  1.70474030 59426
SES-15                  
1 42709U 17026A   26157.53573657  .00000073  00000+0  00000+0 0  9998
2 42709   0.0196 333.0539 0000625  93.0726 252.5345  1.00270292  7327
QZS-2 (MICHIBIKI-2)     
1 42738U 17028A   26156.52533119 -.00000153  00000+0  00000+0 0  9999
2 42738  39.4451 243.3265 0760589 269.1343  71.7999  1.00287038  7503
QZS-3 (MICHIBIKI-3)     
1 42917U 17048A   26157.58652043 -.00000334  00000+0  00000+0 0  9996
2 42917   0.0582 188.4481 0002783 256.4388 148.2996  1.00270908 32157
COSMOS 2522 [GLONASS-M] 
1 42939U 17055A   26153.10670400  .00000070  00000+0  00000+0 0  9995
2 42939  64.0774 192.3978 0010513 239.6203 120.3566  2.13102000 67657
QZS-4 (MICHIBIKI-4)     
1 42965U 17062A   26157.37281824 -.00000313  00000+0  00000+0 0  9994
2 42965  40.1149 343.6213 0744893 271.5546 271.6824  1.00254650 31696
BEIDOU-3 M1             
1 43001U 17069A   26156.85695868 -.00000038  00000+0  00000+0 0  9996
2 43001  56.6823  63.4582 0010790 323.7021  36.2527  1.86231597 58395
BEIDOU-3 M2             
1 43002U 17069B   26156.25871934 -.00000038  00000+0  00000+0 0  9991
2 43002  56.6818  63.5130 0009405 347.9900  12.0146  1.86231067 58374
